SL-3 R/B                
1 13403U 82079B   25357.05716547  .00006368  00000+0  26151-3 0  9994
2 13403  81.1481 283.4986 0026953  65.9424 294.4625 15.23702953366027
SL-14 R/B               
1 13553U 82092B   25357.12547881  .00000451  00000+0  47949-4 0  9992
2 13553  82.5673 212.9989 0019968 191.1317 292.6966 14.86565135317551
SL-3 R/B                
1 13819U 83010B   25356.36609743  .00015834  00000+0  34830-3 0  9994
2 13819  81.1051  96.8674 0016657 317.0227  42.9714 15.43703186346005
SL-3 R/B                
1 14208U 83075B   25357.07882097  .00011382  00000+0  32061-3 0  9990
2 14208  97.6106 353.9103 0023826 139.4980 220.8043 15.36332560318381
COSMOS 1536             
1 14699U 84013A   25356.92727204  .00006966  00000+0  29739-3 0  9998
2 14699  82.5442 184.0602 0014323 187.8294 172.2722 15.22630662260935
SL-14 R/B               
1 14820U 84027B   25356.99352318  .00000506  00000+0  55212-4 0  9996
2 14820  82.5420 316.9400 0016769 223.9048 136.0837 14.85884843236246
SL-8 R/B                
1 15483U 85006B   25357.11324236  .00000268  00000+0  97784-4 0  9998
2 15483  74.0460  42.0494 0019135 332.0988  58.5548 14.37727180143024
SL-12 R/B(2)            
1 15772U 85042D   25356.87813312  .00000046  00000+0  42441-4 0  9993
2 15772  71.1073 250.0020 0037356 246.5821 185.8862 14.21954854103470
SL-14 R/B               
1 15945U 85069B   25356.79970356  .00000484  00000+0  51985-4 0  9996
2 15945  82.5273  97.2460 0020338  87.5919 272.7626 14.86335324161410
SL-16 R/B               
1 16182U 85097B   25356.94848705 -.00000115  00000+0 -33722-4 0  9992
2 16182  71.0038 302.1106 0007372 354.5565  69.9367 14.16587832 76361
SL-14 R/B               
1 16496U 86006B   25356.99780791  .00000581  00000+0  59055-4 0  9998
2 16496  82.5268 331.8984 0077068 165.7358 194.6061 14.86684012137815
COSMOS 1743             
1 16719U 86034A   25356.83874978  .00031758  00000+0  51304-3 0  9999
2 16719  82.5349 154.0975 0004923 210.5651 149.5315 15.52697265168300
